STARLINK-37420          
1 69511U 26133D   26180.48796192  .00194991  00000+0  96617-3 0  9994
2 69511  53.1591 260.3623 0001165  76.5257 283.5895 15.80943521  3983
STARLINK-37511          
1 69512U 26133E   26180.48928381  .00138873  00000+0  69447-3 0  9990
2 69512  53.1589 260.3717 0001063  62.6968 297.4162 15.80916882  2729
STARLINK-37552          
1 69513U 26133F   26180.50003471 -.02211877  00000+0 -17893-1 0  9994
2 69513  53.1594 260.3142 0000913  78.3418 345.1061 15.73469156  3847
STARLINK-37607          
1 69514U 26133G   26180.48411299  .00192486  00000+0  95458-3 0  9998
2 69514  53.1594 260.3363 0001073  63.4897 296.6235 15.80932029  3976
STARLINK-37232          
1 69515U 26133H   26180.50003471 -.02399218  00000+0 -15532-1 0  9990
2 69515  53.1587 260.2145 0001145  61.1737  50.0462 15.78753235  3841
STARLINK-37323          
1 69516U 26133J   26180.54290535  .00102125  00000+0  51432-3 0  9990
2 69516  53.1594 259.9886 0001134  54.4075 305.7054 15.80895646  3983
STARLINK-37357          
1 69517U 26133K   26180.50003471 -.02453073  00000+0 -21155-1 0  9990
2 69517  53.1593 260.2415 0001392  53.2390  44.8309 15.71777501  3847
STARLINK-37408          
1 69518U 26133L   26180.47615502  .00165376  00000+0  82353-3 0  9992
2 69518  53.1593 260.2817 0000881  70.6393 289.4725 15.80923994  3985
STARLINK-37570          
1 69519U 26133M   26180.50003471 -.02208684  00000+0 -16522-1 0  9990
2 69519  53.1591 260.1270 0001406  68.6973  84.4554 15.75242912  3847
STARLINK-37510          
1 69520U 26133N   26180.50003471 -.02244219  00000+0 -15534-1 0  9998
2 69520  53.1590 260.1481 0001348  60.8750  82.3791 15.77039255  3840
STARLINK-37586          
1 69521U 26133P   26180.50003471  .00001910  00000+0  13212-4 0  9998
2 69521  53.1583 260.0240 0001415  69.7495 133.3401 15.80883111  3841
STARLINK-37379          
1 69522U 26133Q   26180.50003471 -.00670006  00000+0 -36281-2 0  9998
2 69522  53.1587 260.0336 0001147  87.9644 110.2896 15.81071799  3891
STARLINK-37429          
1 69523U 26133R   26180.50003471 -.02338251  00000+0 -20274-1 0  9998
2 69523  53.1591 260.0760 0001311  68.0098 109.6092 15.72066600  3899
STARLINK-37352          
1 69524U 26133S   26180.50003471 -.01923916  00000+0 -10918-1 0  9990
2 69524  53.1587 259.9820 0001141  60.1360 162.9297 15.81391100  3890
STARLINK-37490          
1 69525U 26133T   26180.50003471 -.00104928  00000+0 -53286-3 0  9991
2 69525  53.1585 259.8852 0000951  97.8161 171.7973 15.80941367  3891
STARLINK-37438          
1 69526U 26133U   26180.50003471 -.02347188  00000+0 -16214-1 0  9999
2 69526  53.1588 259.9646 0001148  91.4064 139.9467 15.77246067  3893
STARLINK-37484          
1 69527U 26133V   26180.50003471  .00032095  00000+0  16562-3 0  9992
2 69527  53.1585 259.8692 0000975  77.9998 199.2038 15.80863413  3890
STARLINK-37523          
1 69528U 26133W   26180.50003471 -.02418920  00000+0 -15243-1 0  9995
2 69528  53.1589 259.8693 0001283  92.5845 184.4561 15.79368984  3891
STARLINK-37369          
1 69529U 26133X   26180.50003471 -.02354309  00000+0 -14776-1 0  9996
2 69529  53.1588 259.8446 0001050 103.0539 185.5605 15.79361168  3895
STARLINK-37670          
1 69530U 26133Y   26180.50003471 -.02326678  00000+0 -17619-1 0  9995
2 69530  53.1591 259.8235 0001017  76.3531 222.4919 15.75157648  3895
STARLINK-37897          
1 69531U 26133Z   26180.50003471 -.00116188  00000+0 -59125-3 0  9997
2 69531  53.1587 259.7653 0001154  71.9603 254.6941 15.80938578  3849
STARLINK-37933          
1 69532U 26133AA  26180.50003471 -.02428403  00000+0 -14255-1 0  9999
2 69532  53.1591 259.7176 0001028  30.5913 318.9126 15.80913771  3847
STARLINK-37890          
1 69533U 26133AB  26180.50003471 -.00348393  00000+0 -18219-2 0  9992
2 69533  53.1583 259.6653 0001296  56.6245 318.1722 15.81009900  3847
STARLINK-37407          
1 69534U 26133AC  26180.50003471 -.00008501  00000+0 -39565-4 0  9996
2 69534  53.1580 259.6217 0001118  71.6045 323.5882 15.80876178  3899
STARLINK-37888          
1 69535U 26133AD  26180.50003471 -.00164801  00000+0 -84451-3 0  9996
2 69535  53.1581 259.5479 0001059  89.4353 341.2991 15.80946983  3848
STARLINK-37889          
1 69536U 26133AE  26180.50003471 -.02255352  00000+0 -17913-1 0  9998
2 69536  53.1590 260.1078 0001386  62.7237 100.9904 15.73952992  3843
2026-134A               
1 69538U 26134A   26179.92348884  .00004776  00000+0  30291-3 0  9999
2 69538  97.7017 250.0715 0014608 227.1473 132.8529 15.09317442  2085
2026-134B               
1 69539U 26134B   26180.25351169  .00004622  00000+0  29201-3 0  9997
2 69539  97.6991 250.4022 0014736 228.5117 131.4847 15.09477251  2121
2026-134C               
1 69540U 26134C   26180.25322035  .00004673  00000+0  29498-3 0  9993
2 69540  97.6997 250.4035 0014149 229.7317 130.2675 15.09509150  2126
