OBJECT_NAME,OBJECT_ID,EPOCH,MEAN_MOTION,ECCENTRICITY,INCLINATION,RA_OF_ASC_NODE,ARG_OF_PERICENTER,MEAN_ANOMALY,EPHEMERIS_TYPE,CLASSIFICATION_TYPE,NORAD_CAT_ID,ELEMENT_SET_NO,REV_AT_EPOCH,BSTAR,MEAN_MOTION_DOT,MEAN_MOTION_DDOT
STARLINK-37420,2026-133D,2026-06-29T11:42:39.909888,15.80943521,.0001165,53.1591,260.3623,76.5257,283.5895,0,U,69511,999,398,.96617E-3,.194991E-2,0
STARLINK-37511,2026-133E,2026-06-29T11:44:34.121184,15.80916882,.0001063,53.1589,260.3717,62.6968,297.4162,0,U,69512,999,272,.69447E-3,.138873E-2,0
STARLINK-37552,2026-133F,2026-06-29T12:00:02.998944,15.73469156,.0000913,53.1594,260.3142,78.3418,345.1061,0,U,69513,999,384,-.17893E-1,-.2211877E-1,0
STARLINK-37607,2026-133G,2026-06-29T11:37:07.362336,15.80932029,.0001073,53.1594,260.3363,63.4897,296.6235,0,U,69514,999,397,.95458E-3,.192486E-2,0
STARLINK-37232,2026-133H,2026-06-29T12:00:02.998944,15.78753235,.0001145,53.1587,260.2145,61.1737,50.0462,0,U,69515,999,384,-.15532E-1,-.2399218E-1,0
STARLINK-37323,2026-133J,2026-06-29T13:01:47.022240,15.80895646,.0001134,53.1594,259.9886,54.4075,305.7054,0,U,69516,999,398,.51432E-3,.102125E-2,0
STARLINK-37357,2026-133K,2026-06-29T12:00:02.998944,15.71777501,.0001392,53.1593,260.2415,53.2390,44.8309,0,U,69517,999,384,-.21155E-1,-.2453073E-1,0
STARLINK-37408,2026-133L,2026-06-29T11:25:39.793728,15.80923994,.0000881,53.1593,260.2817,70.6393,289.4725,0,U,69518,999,398,.82353E-3,.165376E-2,0
STARLINK-37570,2026-133M,2026-06-29T12:00:02.998944,15.75242912,.0001406,53.1591,260.1270,68.6973,84.4554,0,U,69519,999,384,-.16522E-1,-.2208684E-1,0
STARLINK-37510,2026-133N,2026-06-29T12:00:02.998944,15.77039255,.0001348,53.1590,260.1481,60.8750,82.3791,0,U,69520,999,384,-.15534E-1,-.2244219E-1,0
STARLINK-37586,2026-133P,2026-06-29T12:00:02.998944,15.80883111,.0001415,53.1583,260.0240,69.7495,133.3401,0,U,69521,999,384,.13212E-4,.191E-4,0
STARLINK-37379,2026-133Q,2026-06-29T12:00:02.998944,15.81071799,.0001147,53.1587,260.0336,87.9644,110.2896,0,U,69522,999,389,-.36281E-2,-.670006E-2,0
STARLINK-37429,2026-133R,2026-06-29T12:00:02.998944,15.72066600,.0001311,53.1591,260.0760,68.0098,109.6092,0,U,69523,999,389,-.20274E-1,-.2338251E-1,0
STARLINK-37352,2026-133S,2026-06-29T12:00:02.998944,15.81391100,.0001141,53.1587,259.9820,60.1360,162.9297,0,U,69524,999,389,-.10918E-1,-.1923916E-1,0
STARLINK-37490,2026-133T,2026-06-29T12:00:02.998944,15.80941367,.0000951,53.1585,259.8852,97.8161,171.7973,0,U,69525,999,389,-.53286E-3,-.104928E-2,0
STARLINK-37438,2026-133U,2026-06-29T12:00:02.998944,15.77246067,.0001148,53.1588,259.9646,91.4064,139.9467,0,U,69526,999,389,-.16214E-1,-.2347188E-1,0
STARLINK-37484,2026-133V,2026-06-29T12:00:02.998944,15.80863413,.0000975,53.1585,259.8692,77.9998,199.2038,0,U,69527,999,389,.16562E-3,.32095E-3,0
STARLINK-37523,2026-133W,2026-06-29T12:00:02.998944,15.79368984,.0001283,53.1589,259.8693,92.5845,184.4561,0,U,69528,999,389,-.15243E-1,-.241892E-1,0
STARLINK-37369,2026-133X,2026-06-29T12:00:02.998944,15.79361168,.000105,53.1588,259.8446,103.0539,185.5605,0,U,69529,999,389,-.14776E-1,-.2354309E-1,0
STARLINK-37670,2026-133Y,2026-06-29T12:00:02.998944,15.75157648,.0001017,53.1591,259.8235,76.3531,222.4919,0,U,69530,999,389,-.17619E-1,-.2326678E-1,0
STARLINK-37897,2026-133Z,2026-06-29T12:00:02.998944,15.80938578,.0001154,53.1587,259.7653,71.9603,254.6941,0,U,69531,999,384,-.59125E-3,-.116188E-2,0
STARLINK-37933,2026-133AA,2026-06-29T12:00:02.998944,15.80913771,.0001028,53.1591,259.7176,30.5913,318.9126,0,U,69532,999,384,-.14255E-1,-.2428403E-1,0
STARLINK-37890,2026-133AB,2026-06-29T12:00:02.998944,15.81009900,.0001296,53.1583,259.6653,56.6245,318.1722,0,U,69533,999,384,-.18219E-2,-.348393E-2,0
STARLINK-37407,2026-133AC,2026-06-29T12:00:02.998944,15.80876178,.0001118,53.1580,259.6217,71.6045,323.5882,0,U,69534,999,389,-.39565E-4,-.8501E-4,0
STARLINK-37888,2026-133AD,2026-06-29T12:00:02.998944,15.80946983,.0001059,53.1581,259.5479,89.4353,341.2991,0,U,69535,999,384,-.84451E-3,-.164801E-2,0
STARLINK-37889,2026-133AE,2026-06-29T12:00:02.998944,15.73952992,.0001386,53.1590,260.1078,62.7237,100.9904,0,U,69536,999,384,-.17913E-1,-.2255352E-1,0
2026-134A,2026-134A,2026-06-28T22:09:49.435776,15.09317442,.00146081,97.7017,250.0715,227.1473,132.8529,0,U,69538,999,208,.30291438E-3,.4776E-4,0
2026-134B,2026-134B,2026-06-29T06:05:03.410016,15.09477251,.0014736,97.6991,250.4022,228.5117,131.4847,0,U,69539,999,212,.29201E-3,.4622E-4,0
2026-134C,2026-134C,2026-06-29T06:04:38.238240,15.09509150,.0014149,97.6997,250.4035,229.7317,130.2675,0,U,69540,999,212,.29498E-3,.4673E-4,0
